[{"OBJECT_NAME":"CSTP 1.2 (STC 1.2)","OBJECT_ID":"2023-091W","EPOCH":"2026-03-09T23:12:27.821952","MEAN_MOTION":15.2718076,"ECCENTRICITY":0.00204388,"INCLINATION":97.5258,"RA_OF_ASC_NODE":134.3262,"ARG_OF_PERICENTER":84.9592,"MEAN_ANOMALY":275.3979,"EPHEMERIS_TYPE":0,"CLASSIFICATION_TYPE":"U","NORAD_CAT_ID":57186,"ELEMENT_SET_NO":999,"REV_AT_EPOCH":14930,"BSTAR":0.00043035718,"MEAN_MOTION_DOT":0.00011466,"MEAN_MOTION_DDOT":0},{"OBJECT_NAME":"STARLINK-35061","OBJECT_ID":"2025-243Q","EPOCH":"2026-03-09T17:10:22.557504","MEAN_MOTION":15.30196379,"ECCENTRICITY":8.279e-5,"INCLINATION":53.1572,"RA_OF_ASC_NODE":245.424,"ARG_OF_PERICENTER":81.8584,"MEAN_ANOMALY":278.2511,"EPHEMERIS_TYPE":0,"CLASSIFICATION_TYPE":"U","NORAD_CAT_ID":66191,"ELEMENT_SET_NO":999,"REV_AT_EPOCH":2065,"BSTAR":0.00059072148,"MEAN_MOTION_DOT":0.00017175,"MEAN_MOTION_DDOT":0}]
